{
  "type": "FeatureCollection",
  "features": [
    {
      "type": "Feature",
      "properties": {
        "norad_id": 43260,
        "name": "GAOFEN-1 03",
        "group": "resource",
        "lat": 69.7279229538053,
        "lon": 20.338940308450937,
        "alt_km": 634.1544308159546,
        "timestamp": "2025-12-11T07:02:23.391385+00:00",
        "meta_object_name": "GAOFEN-1 03",
        "meta_object_id": "2018-031B",
        "meta_epoch": "2025-12-10T22:35:07.068192",
        "meta_mean_motion": 14.76430853,
        "meta_eccentricity": 0.00021019,
        "meta_inclination": 98.0801,
        "meta_ra_of_asc_node": 42.6067,
        "meta_arg_of_pericenter": 330.4411,
        "meta_mean_anomaly": 29.668,
        "meta_ephemeris_type": 0,
        "meta_classification_type": "U",
        "meta_norad_cat_id": 43260,
        "meta_element_set_no": 999,
        "meta_rev_at_epoch": 41491,
        "meta_bstar": 0.00021975738,
        "meta_mean_motion_dot": 1.476e-05,
        "meta_mean_motion_ddot": 0,
        "tle_line1": "1 43260U 18031B   25344.94105403  .00001476  00000+0  21976-3 0  9997",
        "tle_line2": "2 43260  98.0801  42.6067 0002101 330.4411  29.6680 14.76430853414919"
      },
      "geometry": {
        "type": "Point",
        "coordinates": [
          20.338940308450937,
          69.7279229538053
        ]
      }
    },
    {
      "type": "Feature",
      "properties": {
        "norad_id": 43262,
        "name": "GAOFEN-1 04",
        "group": "resource",
        "lat": -20.566952409367108,
        "lon": -139.92816994775458,
        "alt_km": 646.4648986836164,
        "timestamp": "2025-12-11T07:02:23.391395+00:00",
        "meta_object_name": "GAOFEN-1 04",
        "meta_object_id": "2018-031D",
        "meta_epoch": "2025-12-10T23:37:40.035360",
        "meta_mean_motion": 14.76442007,
        "meta_eccentricity": 0.00011172,
        "meta_inclination": 98.0805,
        "meta_ra_of_asc_node": 42.8186,
        "meta_arg_of_pericenter": 57.4387,
        "meta_mean_anomaly": 302.693,
        "meta_ephemeris_type": 0,
        "meta_classification_type": "U",
        "meta_norad_cat_id": 43262,
        "meta_element_set_no": 999,
        "meta_rev_at_epoch": 41491,
        "meta_bstar": 0.00015876411,
        "meta_mean_motion_dot": 1.052e-05,
        "meta_mean_motion_ddot": 0,
        "tle_line1": "1 43262U 18031D   25344.98449115  .00001052  00000+0  15876-3 0  9996",
        "tle_line2": "2 43262  98.0805  42.8186 0001117  57.4387 302.6930 14.76442007414919"
      },
      "geometry": {
        "type": "Point",
        "coordinates": [
          -139.92816994775458,
          -20.566952409367108
        ]
      }
    },
    {
      "type": "Feature",
      "properties": {
        "norad_id": 43437,
        "name": "SENTINEL-3B",
        "group": "resource",
        "lat": -80.38748594205951,
        "lon": 166.81248679865925,
        "alt_km": 811.0352120286434,
        "timestamp": "2025-12-11T07:02:23.391406+00:00",
        "meta_object_name": "SENTINEL-3B",
        "meta_object_id": "2018-039A",
        "meta_epoch": "2025-12-10T21:22:56.971488",
        "meta_mean_motion": 14.26741746,
        "meta_eccentricity": 0.00015569,
        "meta_inclination": 98.6269,
        "meta_ra_of_asc_node": 50.1026,
        "meta_arg_of_pericenter": 104.764,
        "meta_mean_anomaly": 255.3713,
        "meta_ephemeris_type": 0,
        "meta_classification_type": "U",
        "meta_norad_cat_id": 43437,
        "meta_element_set_no": 999,
        "meta_rev_at_epoch": 39727,
        "meta_bstar": 0.00011250517,
        "meta_mean_motion_dot": 2.29e-06,
        "meta_mean_motion_ddot": 0,
        "tle_line1": "1 43437U 18039A   25344.89093717  .00000229  00000+0  11251-3 0  9999",
        "tle_line2": "2 43437  98.6269  50.1026 0001556 104.7640 255.3713 14.26741746397272"
      },
      "geometry": {
        "type": "Point",
        "coordinates": [
          166.81248679865925,
          -80.38748594205951
        ]
      }
    },
    {
      "type": "Feature",
      "properties": {
        "norad_id": 43461,
        "name": "GAOFEN-5 01",
        "group": "resource",
        "lat": 76.74565614438005,
        "lon": -90.79838873126236,
        "alt_km": 684.6537833863131,
        "timestamp": "2025-12-11T07:02:23.391416+00:00",
        "meta_object_name": "GAOFEN-5 01",
        "meta_object_id": "2018-043A",
        "meta_epoch": "2025-12-10T15:52:37.152768",
        "meta_mean_motion": 14.6040665,
        "meta_eccentricity": 0.00010926,
        "meta_inclination": 98.4324,
        "meta_ra_of_asc_node": 307.5925,
        "meta_arg_of_pericenter": 348.2801,
        "meta_mean_anomaly": 11.8373,
        "meta_ephemeris_type": 0,
        "meta_classification_type": "U",
        "meta_norad_cat_id": 43461,
        "meta_element_set_no": 999,
        "meta_rev_at_epoch": 40417,
        "meta_bstar": 0.00018403532,
        "meta_mean_motion_dot": 8.42e-06,
        "meta_mean_motion_ddot": 0,
        "tle_line1": "1 43461U 18043A   25344.66154112  .00000842  00000+0  18404-3 0  9991",
        "tle_line2": "2 43461  98.4324 307.5925 0001092 348.2801  11.8373 14.60406650404170"
      },
      "geometry": {
        "type": "Point",
        "coordinates": [
          -90.79838873126236,
          76.74565614438005
        ]
      }
    },
    {
      "type": "Feature",
      "properties": {
        "norad_id": 43484,
        "name": "GAOFEN-6",
        "group": "resource",
        "lat": -8.911654018133875,
        "lon": 50.84035998519184,
        "alt_km": 642.1331753983168,
        "timestamp": "2025-12-11T07:02:23.391426+00:00",
        "meta_object_name": "GAOFEN-6",
        "meta_object_id": "2018-048A",
        "meta_epoch": "2025-12-10T22:56:54.606048",
        "meta_mean_motion": 14.76560939,
        "meta_eccentricity": 0.00132716,
        "meta_inclination": 97.8029,
        "meta_ra_of_asc_node": 49.2825,
        "meta_arg_of_pericenter": 68.8325,
        "meta_mean_anomaly": 291.4302,
        "meta_ephemeris_type": 0,
        "meta_classification_type": "U",
        "meta_norad_cat_id": 43484,
        "meta_element_set_no": 999,
        "meta_rev_at_epoch": 40561,
        "meta_bstar": 0.00020281863,
        "meta_mean_motion_dot": 1.367e-05,
        "meta_mean_motion_ddot": 0,
        "tle_line1": "1 43484U 18048A   25344.95618757  .00001367  00000+0  20282-3 0  9993",
        "tle_line2": "2 43484  97.8029  49.2825 0013271  68.8325 291.4302 14.76560939405613"
      },
      "geometry": {
        "type": "Point",
        "coordinates": [
          50.84035998519184,
          -8.911654018133875
        ]
      }
    },
    {
      "type": "Feature",
      "properties": {
        "norad_id": 43585,
        "name": "GAOFEN-11 01",
        "group": "resource",
        "lat": 39.23107329015033,
        "lon": -125.87299034883631,
        "alt_km": 419.31567608346086,
        "timestamp": "2025-12-11T07:02:23.391437+00:00",
        "meta_object_name": "GAOFEN-11 01",
        "meta_object_id": "2018-063A",
        "meta_epoch": "2025-12-10T22:41:04.815168",
        "meta_mean_motion": 15.49131526,
        "meta_eccentricity": 0.00043775,
        "meta_inclination": 97.1558,
        "meta_ra_of_asc_node": 47.8941,
        "meta_arg_of_pericenter": 322.6712,
        "meta_mean_anomaly": 37.4235,
        "meta_ephemeris_type": 0,
        "meta_classification_type": "U",
        "meta_norad_cat_id": 43585,
        "meta_element_set_no": 999,
        "meta_rev_at_epoch": 41114,
        "meta_bstar": 0.00035356628,
        "meta_mean_motion_dot": 0.00019155,
        "meta_mean_motion_ddot": 0,
        "tle_line1": "1 43585U 18063A   25344.94519462  .00019155  00000+0  35357-3 0  9997",
        "tle_line2": "2 43585  97.1558  47.8941 0004377 322.6712  37.4235 15.49131526411141"
      },
      "geometry": {
        "type": "Point",
        "coordinates": [
          -125.87299034883631,
          39.23107329015033
        ]
      }
    },
    {
      "type": "Feature",
      "properties": {
        "norad_id": 43613,
        "name": "ICESAT-2",
        "group": "resource",
        "lat": -14.78220681303775,
        "lon": -119.1235316488323,
        "alt_km": 487.40389556889113,
        "timestamp": "2025-12-11T07:02:23.391447+00:00",
        "meta_object_name": "ICESAT-2",
        "meta_object_id": "2018-070A",
        "meta_epoch": "2025-12-10T23:14:50.016480",
        "meta_mean_motion": 15.28320955,
        "meta_eccentricity": 0.00025553,
        "meta_inclination": 92.0043,
        "meta_ra_of_asc_node": 240.2594,
        "meta_arg_of_pericenter": 153.3073,
        "meta_mean_anomaly": 206.8308,
        "meta_ephemeris_type": 0,
        "meta_classification_type": "U",
        "meta_norad_cat_id": 43613,
        "meta_element_set_no": 999,
        "meta_rev_at_epoch": 40371,
        "meta_bstar": 0.00067673466,
        "meta_mean_motion_dot": 0.00018679,
        "meta_mean_motion_ddot": 0,
        "tle_line1": "1 43613U 18070A   25344.96863445  .00018679  00000+0  67673-3 0  9998",
        "tle_line2": "2 43613  92.0043 240.2594 0002555 153.3073 206.8308 15.28320955403714"
      },
      "geometry": {
        "type": "Point",
        "coordinates": [
          -119.1235316488323,
          -14.78220681303775
        ]
      }
    }
  ]
}